{"fetched_at":"2026-07-09T07:59:47.838Z","source":"https://celestrak.org/NORAD/elements/gp.php?GROUP=spire&FORMAT=JSON","constellation":"spire","records":[{"OBJECT_NAME":"LEMUR-2-VALHALLA","OBJECT_ID":"2024-022B","EPOCH":"2026-07-08T12:25:21.736416","CLASSIFICATION_TYPE":"U","MEAN_MOTION":15.40344373,"ECCENTRICITY":0.00099081,"INCLINATION":97.4095,"RA_OF_ASC_NODE":39.7731,"ARG_OF_PERICENTER":46.0433,"MEAN_ANOMALY":314.1629,"EPHEMERIS_TYPE":0,"NORAD_CAT_ID":58900,"ELEMENT_SET_NO":999,"REV_AT_EPOCH":13555,"BSTAR":0.00030170396,"MEAN_MOTION_DOT":0.00012113,"MEAN_MOTION_DDOT":0},{"OBJECT_NAME":"LEMUR-2-CAEL","OBJECT_ID":"2024-022E","EPOCH":"2026-07-08T07:32:42.895968","CLASSIFICATION_TYPE":"U","MEAN_MOTION":15.41690753,"ECCENTRICITY":0.00079027,"INCLINATION":97.4078,"RA_OF_ASC_NODE":40.5408,"ARG_OF_PERICENTER":33.0363,"MEAN_ANOMALY":327.1376,"EPHEMERIS_TYPE":0,"NORAD_CAT_ID":58903,"ELEMENT_SET_NO":999,"REV_AT_EPOCH":13559,"BSTAR":0.00028530534,"MEAN_MOTION_DOT":0.00011966,"MEAN_MOTION_DDOT":0},{"OBJECT_NAME":"LEMUR-2-JOHNNYTRUONG","OBJECT_ID":"2024-043BA","EPOCH":"2026-07-08T16:26:29.091552","CLASSIFICATION_TYPE":"U","MEAN_MOTION":15.62171037,"ECCENTRICITY":0.00043294,"INCLINATION":97.5388,"RA_OF_ASC_NODE":342.7481,"ARG_OF_PERICENTER":112.0392,"MEAN_ANOMALY":248.1325,"EPHEMERIS_TYPE":0,"NORAD_CAT_ID":59146,"ELEMENT_SET_NO":999,"REV_AT_EPOCH":13139,"BSTAR":0.00037828482,"MEAN_MOTION_DOT":0.00033181,"MEAN_MOTION_DDOT":0},{"OBJECT_NAME":"LEMUR-2-TOMATOKECHUP","OBJECT_ID":"2024-149D","EPOCH":"2026-07-08T19:08:25.173312","CLASSIFICATION_TYPE":"U","MEAN_MOTION":15.36491942,"ECCENTRICITY":0.00029972,"INCLINATION":97.3793,"RA_OF_ASC_NODE":271.9051,"ARG_OF_PERICENTER":133.9073,"MEAN_ANOMALY":226.2419,"EPHEMERIS_TYPE":0,"NORAD_CAT_ID":60471,"ELEMENT_SET_NO":999,"REV_AT_EPOCH":10548,"BSTAR":0.00021141057,"MEAN_MOTION_DOT":0.00007447,"MEAN_MOTION_DDOT":0},{"OBJECT_NAME":"LEMUR-2-STELLA","OBJECT_ID":"2024-149BT","EPOCH":"2026-07-08T17:19:33.095712","CLASSIFICATION_TYPE":"U","MEAN_MOTION":15.12280986,"ECCENTRICITY":0.00010443,"INCLINATION":97.6728,"RA_OF_ASC_NODE":272.2767,"ARG_OF_PERICENTER":111.1578,"MEAN_ANOMALY":248.9764,"EPHEMERIS_TYPE":0,"NORAD_CAT_ID":60533,"ELEMENT_SET_NO":999,"REV_AT_EPOCH":10375,"BSTAR":0.00047339544,"MEAN_MOTION_DOT":0.00008128,"MEAN_MOTION_DDOT":0},{"OBJECT_NAME":"LEMUR-2-MARHISYAM","OBJECT_ID":"2024-149BW","EPOCH":"2026-07-08T18:38:08.747232","CLASSIFICATION_TYPE":"U","MEAN_MOTION":15.11695085,"ECCENTRICITY":0.00027861,"INCLINATION":97.6875,"RA_OF_ASC_NODE":272.8024,"ARG_OF_PERICENTER":79.1951,"MEAN_ANOMALY":280.9593,"EPHEMERIS_TYPE":0,"NORAD_CAT_ID":60536,"ELEMENT_SET_NO":999,"REV_AT_EPOCH":10374,"BSTAR":0.00047514875,"MEAN_MOTION_DOT":0.00008027,"MEAN_MOTION_DDOT":0},{"OBJECT_NAME":"LEMUR-2-AHMED-ASRAR","OBJECT_ID":"2024-149DN","EPOCH":"2026-07-08T18:56:49.175520","CLASSIFICATION_TYPE":"U","MEAN_MOTION":15.13212854,"ECCENTRICITY":0.00006552,"INCLINATION":97.6998,"RA_OF_ASC_NODE":274.9929,"ARG_OF_PERICENTER":245.3052,"MEAN_ANOMALY":114.8111,"EPHEMERIS_TYPE":0,"NORAD_CAT_ID":60576,"ELEMENT_SET_NO":999,"REV_AT_EPOCH":10383,"BSTAR":0.0004695679,"MEAN_MOTION_DOT":0.00008275,"MEAN_MOTION_DDOT":0},{"OBJECT_NAME":"LEMUR-2-LLOYD","OBJECT_ID":"2024-149DP","EPOCH":"2026-07-08T18:51:33.236640","CLASSIFICATION_TYPE":"U","MEAN_MOTION":15.09668416,"ECCENTRICITY":0.00048126,"INCLINATION":97.6733,"RA_OF_ASC_NODE":270.9309,"ARG_OF_PERICENTER":86.727,"MEAN_ANOMALY":273.451,"EPHEMERIS_TYPE":0,"NORAD_CAT_ID":60577,"ELEMENT_SET_NO":999,"REV_AT_EPOCH":10365,"BSTAR":0.00046856087,"MEAN_MOTION_DOT":0.00007484,"MEAN_MOTION_DDOT":0},{"OBJECT_NAME":"LEMUR-2-SQUIRRELCOMM","OBJECT_ID":"2024-149DQ","EPOCH":"2026-07-08T00:49:41.985408","CLASSIFICATION_TYPE":"U","MEAN_MOTION":15.07397331,"ECCENTRICITY":0.00047468,"INCLINATION":97.6707,"RA_OF_ASC_NODE":269.8822,"ARG_OF_PERICENTER":354.4134,"MEAN_ANOMALY":5.7039,"EPHEMERIS_TYPE":0,"NORAD_CAT_ID":60578,"ELEMENT_SET_NO":999,"REV_AT_EPOCH":10354,"BSTAR":0.00024740327,"MEAN_MOTION_DOT":0.00003681,"MEAN_MOTION_DDOT":0},{"OBJECT_NAME":"LEMUR-2-SIERRINI","OBJECT_ID":"2024-149DR","EPOCH":"2026-07-08T19:18:05.656896","CLASSIFICATION_TYPE":"U","MEAN_MOTION":15.11421398,"ECCENTRICITY":0.00065063,"INCLINATION":97.6834,"RA_OF_ASC_NODE":272.4977,"ARG_OF_PERICENTER":107.2256,"MEAN_ANOMALY":252.9686,"EPHEMERIS_TYPE":0,"NORAD_CAT_ID":60579,"ELEMENT_SET_NO":999,"REV_AT_EPOCH":10372,"BSTAR":0.00039680337,"MEAN_MOTION_DOT":0.00006643,"MEAN_MOTION_DDOT":0},{"OBJECT_NAME":"LEMUR-2-WILSON","OBJECT_ID":"2025-009CP","EPOCH":"2026-07-08T10:37:57.505152","CLASSIFICATION_TYPE":"U","MEAN_MOTION":14.95263092,"ECCENTRICITY":0.00025129,"INCLINATION":97.7023,"RA_OF_ASC_NODE":267.535,"ARG_OF_PERICENTER":1.2947,"MEAN_ANOMALY":358.828,"EPHEMERIS_TYPE":0,"NORAD_CAT_ID":62694,"ELEMENT_SET_NO":999,"REV_AT_EPOCH":8053,"BSTAR":0.00016290216,"MEAN_MOTION_DOT":0.00001736,"MEAN_MOTION_DDOT":0},{"OBJECT_NAME":"LEMUR-2-STAR-FOX","OBJECT_ID":"2025-009CR","EPOCH":"2026-07-08T19:14:05.048448","CLASSIFICATION_TYPE":"U","MEAN_MOTION":15.02792322,"ECCENTRICITY":0.0003127,"INCLINATION":97.6924,"RA_OF_ASC_NODE":271.2563,"ARG_OF_PERICENTER":64.7276,"MEAN_ANOMALY":295.4272,"EPHEMERIS_TYPE":0,"NORAD_CAT_ID":62696,"ELEMENT_SET_NO":999,"REV_AT_EPOCH":8080,"BSTAR":0.0002840896,"MEAN_MOTION_DOT":0.00003741,"MEAN_MOTION_DDOT":0},{"OBJECT_NAME":"LEMUR-2-ARIANNA","OBJECT_ID":"2025-009CU","EPOCH":"2026-07-08T19:11:52.744992","CLASSIFICATION_TYPE":"U","MEAN_MOTION":15.02792285,"ECCENTRICITY":0.00034484,"INCLINATION":97.6861,"RA_OF_ASC_NODE":271.0121,"ARG_OF_PERICENTER":70.2797,"MEAN_ANOMALY":289.88,"EPHEMERIS_TYPE":0,"NORAD_CAT_ID":62699,"ELEMENT_SET_NO":999,"REV_AT_EPOCH":8080,"BSTAR":0.00030009095,"MEAN_MOTION_DOT":0.00003955,"MEAN_MOTION_DDOT":0},{"OBJECT_NAME":"LEMUR-2-ALISIA","OBJECT_ID":"2025-009DB","EPOCH":"2026-07-08T18:34:04.688832","CLASSIFICATION_TYPE":"U","MEAN_MOTION":15.0311018,"ECCENTRICITY":0.00035501,"INCLINATION":97.6958,"RA_OF_ASC_NODE":271.7979,"ARG_OF_PERICENTER":149.8372,"MEAN_ANOMALY":210.3058,"EPHEMERIS_TYPE":0,"NORAD_CAT_ID":62706,"ELEMENT_SET_NO":999,"REV_AT_EPOCH":10340,"BSTAR":0.00044959389,"MEAN_MOTION_DOT":0.00006008,"MEAN_MOTION_DDOT":0},{"OBJECT_NAME":"LEMUR-2-ROUNDTRIPPER","OBJECT_ID":"2025-009DG","EPOCH":"2026-07-08T18:48:01.742400","CLASSIFICATION_TYPE":"U","MEAN_MOTION":15.04158991,"ECCENTRICITY":0.00043929,"INCLINATION":97.7229,"RA_OF_ASC_NODE":272.4344,"ARG_OF_PERICENTER":78.6143,"MEAN_ANOMALY":281.5576,"EPHEMERIS_TYPE":0,"NORAD_CAT_ID":62711,"ELEMENT_SET_NO":999,"REV_AT_EPOCH":8087,"BSTAR":0.0004846626,"MEAN_MOTION_DOT":0.00006666,"MEAN_MOTION_DDOT":0},{"OBJECT_NAME":"LEMUR-2-MYNAMEISJEFF","OBJECT_ID":"2025-009DH","EPOCH":"2026-07-08T18:45:47.880288","CLASSIFICATION_TYPE":"U","MEAN_MOTION":15.04151412,"ECCENTRICITY":0.00036156,"INCLINATION":97.7284,"RA_OF_ASC_NODE":272.8265,"ARG_OF_PERICENTER":112.1675,"MEAN_ANOMALY":247.9935,"EPHEMERIS_TYPE":0,"NORAD_CAT_ID":62712,"ELEMENT_SET_NO":999,"REV_AT_EPOCH":8087,"BSTAR":0.00048178376,"MEAN_MOTION_DOT":0.00006624,"MEAN_MOTION_DDOT":0}]}
